{"type": "FeatureCollection", "features": [{"type": "Feature", "properties": {"id": "leflore-ms", "name": "Leflore County, MS", "st_nm": "US-MS-AR delta"}, "geometry": {"type": "Polygon", "coordinates": [[[-90.136787, 33.721648], [-90.137011, 33.676944], [-90.127775, 33.676956], [-90.101401, 33.45894], [-90.174756, 33.417003], [-90.174614, 33.333378], [-90.321513, 33.375121], [-90.331589, 33.302825], [-90.3735, 33.242209], [-90.453801, 33.267302], [-90.453233, 33.329484], [-90.451643, 33.81139], [-90.182584, 33.809322], [-90.185599, 33.765514], [-90.294502, 33.750981], [-90.269105, 33.697208], [-90.136787, 33.721648]]]}}, {"type": "Feature", "properties": {"id": "washington-ms", "name": "Washington County, MS", "st_nm": "US-MS-AR delta"}, "geometry": {"type": "Polygon", "coordinates": [[[-90.716277, 33.270032], [-90.680319, 33.201971], [-90.701845, 33.096294], [-90.914465, 33.097417], [-90.914337, 33.007697], [-91.157662, 33.011217], [-91.125656, 33.038276], [-91.087589, 33.145177], [-91.085984, 33.221644], [-91.110561, 33.24593], [-91.141216, 33.298397], [-91.184427, 33.419576], [-91.131885, 33.430063], [-91.118495, 33.449116], [-91.125109, 33.472842], [-91.215671, 33.529423], [-90.763509, 33.529389], [-90.763773, 33.270359], [-90.716277, 33.270032]]]}}, {"type": "Feature", "properties": {"id": "chicot-ar", "name": "Chicot County, AR", "st_nm": "US-MS-AR delta"}, "geometry": {"type": "Polygon", "coordinates": [[[-91.215671, 33.529423], [-91.125109, 33.472842], [-91.118495, 33.449116], [-91.131885, 33.430063], [-91.184427, 33.419576], [-91.141216, 33.298397], [-91.110561, 33.24593], [-91.085984, 33.221644], [-91.087589, 33.145177], [-91.125656, 33.038276], [-91.157662, 33.011217], [-91.166073, 33.004106], [-91.265018, 33.005084], [-91.284398, 33.005007], [-91.312016, 33.005262], [-91.322506, 33.005341], [-91.325037, 33.005364], [-91.326396, 33.005376], [-91.329767, 33.005421], [-91.333011, 33.005529], [-91.376016, 33.005794], [-91.425466, 33.006016], [-91.435782, 33.006099], [-91.46037, 33.006246], [-91.45737, 33.388974], [-91.453438, 33.563703], [-91.34954, 33.563646], [-91.35081, 33.519476], [-91.24576, 33.517148], [-91.244582, 33.561425], [-91.228287, 33.559937], [-91.232295, 33.552788], [-91.215671, 33.529423]]]}}, {"type": "Feature", "properties": {"id": "mississippi-ar", "name": "Mississippi County, AR", "st_nm": "US-MS-AR delta"}, "geometry": {"type": "Polygon", "coordinates": [[[-89.933572, 35.533299], [-89.957347, 35.528683], [-90.017312, 35.555996], [-90.02862, 35.555249], [-90.032938, 35.55344], [-90.039744, 35.548041], [-90.034976, 35.480705], [-90.034014, 35.468821], [-90.04768, 35.459255], [-90.059068, 35.457889], [-90.067798, 35.466224], [-90.072154, 35.470752], [-90.07442, 35.472518], [-90.107723, 35.476935], [-90.152386, 35.436789], [-90.286899, 35.438573], [-90.287039, 35.439933], [-90.286736, 35.699914], [-90.288947, 35.996418], [-90.2888, 35.996419], [-90.158812, 35.997375], [-90.127331, 35.997635], [-90.12635, 35.997596], [-89.972563, 35.998994], [-89.965327, 35.998813], [-89.961075, 35.999135], [-89.959893, 35.99902], [-89.959377, 35.99902], [-89.959375, 35.99902], [-89.901183, 35.999365], [-89.896508, 35.999432], [-89.875586, 35.999562], [-89.875085, 35.999578], [-89.87459, 35.999575], [-89.86901, 35.99964], [-89.770255, 36.000524], [-89.769973, 36.000536], [-89.737648, 36.000567], [-89.737564, 36.000522], [-89.733095, 36.000608], [-89.71997, 35.97462], [-89.686924, 35.947716], [-89.687939, 35.905384], [-89.688141, 35.896946], [-89.714934, 35.906247], [-89.73361, 35.904699], [-89.756036, 35.896817], [-89.765689, 35.891299], [-89.771726, 35.879724], [-89.773564, 35.871697], [-89.772467, 35.865098], [-89.769413, 35.861558], [-89.749424, 35.852955], [-89.729517, 35.847632], [-89.709261, 35.838911], [-89.702883, 35.834153], [-89.701045, 35.828227], [-89.703875, 35.820281], [-89.821216, 35.756716], [-89.865631, 35.746577], [-89.889023, 35.750558], [-89.905538, 35.759063], [-89.909996, 35.759396], [-89.950278, 35.738493], [-89.956254, 35.733386], [-89.958882, 35.723834], [-89.955753, 35.690621], [-89.937383, 35.665711], [-89.922749, 35.655293], [-89.906147, 35.651145], [-89.89051, 35.652408], [-89.884932, 35.655107], [-89.909797, 35.537914], [-89.933572, 35.533299]]]}}, {"type": "Feature", "properties": {"id": "bolivar-ms", "name": "Bolivar County, MS", "st_nm": "US-MS-AR delta"}, "geometry": {"type": "Polygon", "coordinates": [[[-91.232295, 33.552788], [-91.228287, 33.559937], [-91.224121, 33.567369], [-91.152148, 33.582721], [-91.134043, 33.594489], [-91.130445, 33.606034], [-91.157484, 33.626187], [-91.186519, 33.645909], [-91.193093, 33.656866], [-91.18871, 33.669466], [-91.185971, 33.679327], [-91.17611, 33.684257], [-91.14817, 33.679327], [-91.139953, 33.683709], [-91.132831, 33.688092], [-91.1279, 33.695762], [-91.126805, 33.707814], [-91.136118, 33.728632], [-91.144682, 33.750108], [-91.139869, 33.777117], [-91.067511, 33.840443], [-91.036821, 33.914656], [-91.088164, 33.960078], [-91.089119, 33.972653], [-91.01889, 34.003151], [-90.964708, 34.007952], [-90.887413, 34.032505], [-90.879163, 34.065503], [-90.888396, 34.087433], [-90.912057, 34.095512], [-90.928793, 34.107631], [-90.931969, 34.120017], [-90.659457, 34.118867], [-90.657002, 33.987586], [-90.6586, 33.616272], [-90.763469, 33.616164], [-90.763509, 33.529389], [-91.215671, 33.529423], [-91.232295, 33.552788]]]}}, {"type": "Feature", "properties": {"id": "humphreys-ms", "name": "Humphreys County, MS", "st_nm": "US-MS-AR delta"}, "geometry": {"type": "Polygon", "coordinates": [[[-90.453233, 33.329484], [-90.453801, 33.267302], [-90.3735, 33.242209], [-90.331589, 33.302825], [-90.330312, 33.137818], [-90.431684, 33.096871], [-90.364031, 33.010596], [-90.449323, 33.00901], [-90.449893, 32.92329], [-90.656632, 32.92251], [-90.658049, 33.096514], [-90.701845, 33.096294], [-90.680319, 33.201971], [-90.716277, 33.270032], [-90.555211, 33.270533], [-90.555549, 33.329181], [-90.453233, 33.329484]]]}}, {"type": "Feature", "properties": {"id": "tunica-ms", "name": "Tunica County, MS", "st_nm": "US-MS-AR delta"}, "geometry": {"type": "Polygon", "coordinates": [[[-90.293918, 34.860563], [-90.202126, 34.860374], [-90.200199, 34.724418], [-90.239971, 34.626237], [-90.198631, 34.554425], [-90.198536, 34.511088], [-90.304317, 34.509621], [-90.301851, 34.424546], [-90.399498, 34.423807], [-90.568867, 34.524584], [-90.570133, 34.524829], [-90.575786, 34.641749], [-90.576543, 34.657402], [-90.564033, 34.665742], [-90.549855, 34.662406], [-90.539013, 34.65907], [-90.521499, 34.66324], [-90.508989, 34.679086], [-90.509823, 34.689928], [-90.533175, 34.707442], [-90.554859, 34.727458], [-90.549855, 34.76332], [-90.537345, 34.78417], [-90.519831, 34.782502], [-90.501325, 34.769931], [-90.494811, 34.76749], [-90.479799, 34.769158], [-90.467289, 34.782502], [-90.478131, 34.832542], [-90.473961, 34.852558], [-90.461451, 34.856728], [-90.436431, 34.85506], [-90.423879, 34.834606], [-90.414864, 34.831846], [-90.407964, 34.832767], [-90.307384, 34.846195], [-90.293918, 34.860563]]]}}, {"type": "Feature", "properties": {"id": "yazoo-ms", "name": "Yazoo County, MS", "st_nm": "US-MS-AR delta"}, "geometry": {"type": "Polygon", "coordinates": [[[-89.965882, 32.879573], [-90.049129, 32.735674], [-90.197729, 32.66385], [-90.278055, 32.660346], [-90.363868, 32.603268], [-90.450037, 32.573783], [-90.553821, 32.507574], [-90.654589, 32.546044], [-90.720102, 32.618858], [-90.697563, 32.625135], [-90.693011, 32.640113], [-90.712819, 32.642346], [-90.723159, 32.662128], [-90.664408, 32.689129], [-90.742634, 32.729225], [-90.694631, 32.815642], [-90.759753, 32.835763], [-90.656632, 32.92251], [-90.449893, 32.92329], [-90.449323, 33.00901], [-90.364031, 33.010596], [-89.965882, 32.879573]]]}}, {"type": "Feature", "properties": {"id": "sunflower-ms", "name": "Sunflower County, MS", "st_nm": "US-MS-AR delta"}, "geometry": {"type": "Polygon", "coordinates": [[[-90.451643, 33.81139], [-90.453233, 33.329484], [-90.555549, 33.329181], [-90.555211, 33.270533], [-90.716277, 33.270032], [-90.763773, 33.270359], [-90.763509, 33.529389], [-90.763469, 33.616164], [-90.6586, 33.616272], [-90.657002, 33.987586], [-90.451012, 33.985689], [-90.450289, 33.970944], [-90.451643, 33.81139]]]}}, {"type": "Feature", "properties": {"id": "coahoma-ms", "name": "Coahoma County, MS", "st_nm": "US-MS-AR delta"}, "geometry": {"type": "Polygon", "coordinates": [[[-90.570133, 34.524829], [-90.568867, 34.524584], [-90.399498, 34.423807], [-90.399014, 34.261524], [-90.450572, 34.262402], [-90.450981, 34.072932], [-90.45053, 34.000112], [-90.451012, 33.985689], [-90.657002, 33.987586], [-90.659457, 34.118867], [-90.931969, 34.120017], [-90.933116, 34.124488], [-90.934564, 34.130138], [-90.918405, 34.154376], [-90.893013, 34.155531], [-90.880317, 34.169381], [-90.880894, 34.180346], [-90.895898, 34.191888], [-90.913212, 34.210355], [-90.91148, 34.223051], [-90.894744, 34.229977], [-90.868775, 34.228245], [-90.856367, 34.238928], [-90.764143, 34.363396], [-90.658542, 34.375705], [-90.613944, 34.390723], [-90.575336, 34.415152], [-90.565809, 34.4354], [-90.570133, 34.524829]]]}}, {"type": "Feature", "properties": {"id": "issaquena-ms", "name": "Issaquena County, MS", "st_nm": "US-MS-AR delta"}, "geometry": {"type": "Polygon", "coordinates": [[[-90.720102, 32.618858], [-90.728344, 32.566265], [-90.860566, 32.575173], [-90.861364, 32.442115], [-90.95124, 32.444389], [-90.964043, 32.575605], [-91.090771, 32.563978], [-91.096774, 32.576652], [-91.104111, 32.584657], [-91.119854, 32.584795], [-91.127912, 32.586493], [-91.141148, 32.597209], [-91.146204, 32.604144], [-91.151318, 32.615919], [-91.153821, 32.631282], [-91.152081, 32.641508], [-91.118258, 32.674075], [-91.098762, 32.685291], [-91.076061, 32.693751], [-91.063946, 32.702926], [-91.057043, 32.712576], [-91.054481, 32.722259], [-91.060766, 32.727494], [-91.077176, 32.732534], [-91.123152, 32.742798], [-91.154461, 32.742339], [-91.163389, 32.747009], [-91.165328, 32.751301], [-91.164397, 32.785821], [-91.161669, 32.812465], [-91.158336, 32.822304], [-91.145002, 32.84287], [-91.127886, 32.855059], [-91.116091, 32.855641], [-91.105631, 32.858396], [-91.086683, 32.873392], [-91.070602, 32.888659], [-91.063809, 32.903709], [-91.063974, 32.924113], [-91.086802, 32.976266], [-91.094265, 32.984371], [-91.106581, 32.988938], [-91.125107, 32.984669], [-91.134414, 32.980533], [-91.138585, 32.971352], [-91.130947, 32.963815], [-91.132115, 32.923122], [-91.134041, 32.917676], [-91.145076, 32.905494], [-91.159975, 32.899879], [-91.175405, 32.899998], [-91.196785, 32.906784], [-91.208263, 32.915354], [-91.212837, 32.922104], [-91.214027, 32.93032], [-91.201842, 32.961212], [-91.166073, 33.004106], [-91.157662, 33.011217], [-90.914337, 33.007697], [-90.963753, 32.838133], [-90.964864, 32.662798], [-90.723159, 32.662128], [-90.712819, 32.642346], [-90.693011, 32.640113], [-90.697563, 32.625135], [-90.720102, 32.618858]]]}}, {"type": "Feature", "properties": {"id": "sharkey-ms", "name": "Sharkey County, MS", "st_nm": "US-MS-AR delta"}, "geometry": {"type": "Polygon", "coordinates": [[[-90.701845, 33.096294], [-90.658049, 33.096514], [-90.656632, 32.92251], [-90.759753, 32.835763], [-90.694631, 32.815642], [-90.742634, 32.729225], [-90.664408, 32.689129], [-90.723159, 32.662128], [-90.964864, 32.662798], [-90.963753, 32.838133], [-90.914337, 33.007697], [-90.914465, 33.097417], [-90.701845, 33.096294]]]}}, {"type": "Feature", "properties": {"id": "desha-ar", "name": "Desha County, AR", "st_nm": "US-MS-AR delta"}, "geometry": {"type": "Polygon", "coordinates": [[[-91.224121, 33.567369], [-91.228287, 33.559937], [-91.244582, 33.561425], [-91.24576, 33.517148], [-91.35081, 33.519476], [-91.34954, 33.563646], [-91.453438, 33.563703], [-91.450325, 33.780415], [-91.557648, 33.783384], [-91.548668, 33.976799], [-91.421715, 34.014472], [-91.347628, 33.954941], [-91.132686, 33.955221], [-91.194278, 34.070938], [-91.117905, 34.119105], [-90.95517, 34.118833], [-90.933116, 34.124488], [-90.931969, 34.120017], [-90.928793, 34.107631], [-90.912057, 34.095512], [-90.888396, 34.087433], [-90.879163, 34.065503], [-90.887413, 34.032505], [-90.964708, 34.007952], [-91.01889, 34.003151], [-91.089119, 33.972653], [-91.088164, 33.960078], [-91.036821, 33.914656], [-91.067511, 33.840443], [-91.139869, 33.777117], [-91.144682, 33.750108], [-91.136118, 33.728632], [-91.126805, 33.707814], [-91.1279, 33.695762], [-91.132831, 33.688092], [-91.139953, 33.683709], [-91.14817, 33.679327], [-91.17611, 33.684257], [-91.185971, 33.679327], [-91.18871, 33.669466], [-91.193093, 33.656866], [-91.186519, 33.645909], [-91.157484, 33.626187], [-91.130445, 33.606034], [-91.134043, 33.594489], [-91.152148, 33.582721], [-91.224121, 33.567369]]]}}, {"type": "Feature", "properties": {"id": "tallahatchie-ms", "name": "Tallahatchie County, MS", "st_nm": "US-MS-AR delta"}, "geometry": {"type": "Polygon", "coordinates": [[[-89.926099, 33.897957], [-89.926294, 33.823854], [-90.136491, 33.809319], [-90.136787, 33.721648], [-90.269105, 33.697208], [-90.294502, 33.750981], [-90.185599, 33.765514], [-90.182584, 33.809322], [-90.451643, 33.81139], [-90.450289, 33.970944], [-90.451012, 33.985689], [-90.45053, 34.000112], [-90.450981, 34.072932], [-90.135695, 34.0729], [-90.135456, 34.160074], [-89.931485, 34.164303], [-89.926099, 33.897957]]]}}]}