{"type":"FeatureCollection","features":[{"type":"Feature","properties":{"id":"siddharthnagar","name":"Siddharthnagar","st_nm":"Uttar Pradesh","dt_code":"184","year":"2011_c"},"geometry":{"type":"MultiPolygon","coordinates":[[[[83.147410702343,27.1143575956199],[83.1296938837502,27.107657348521514],[83.11974759962794,27.114089585735965],[83.12036924238559,27.09988506188738],[83.04670457560509,27.094256854324737],[83.05665085972734,27.085144518270926],[83.03023104252759,27.081928399663703],[83.02339297219353,27.069599945002665],[83.03458254183107,27.039582838001888],[83.0212172225418,27.04655109498421],[83.00878436738896,27.04360298626092],[83.0078519032525,27.032346571135626],[82.98578358535623,27.03395463043924],[82.97055333779402,27.048159154287823],[82.96278280332349,27.028326422876596],[82.91056481168162,27.020286126358528],[82.90497002686286,27.0042055333224],[82.89564538549823,27.01358587926014],[82.87948267379956,27.01304985949227],[82.86456324761616,27.037974778698274],[82.82944043180942,27.019214086822785],[82.8185616835507,27.038510798466145],[82.79369597324504,27.048159154287823],[82.79058775945684,27.08032034036009],[82.76354629949944,27.11194550666448],[82.72220705611628,27.100153071771317],[82.71816637819161,27.10953341770906],[82.65973195897332,27.114625605503836],[82.65879949483686,27.12320192178977],[82.63610953418295,27.104709239798222],[82.585756470814,27.104977249682157],[82.55902583223542,27.081928399663703],[82.55343104741665,27.092112775253252],[82.55467433293192,27.102029140958866],[82.54441722743084,27.108193368289385],[82.51426755368524,27.126418040397],[82.50494291232062,27.121325852602222],[82.50991605438175,27.133118287495385],[82.49344252130425,27.145714752040355],[82.4897126647584,27.165011463683715],[82.47075256065034,27.161795345076488],[82.4806988447726,27.151342959603003],[82.45583313446694,27.151342959603003],[82.43935960138946,27.16474345379978],[82.44495438620822,27.181896086371655],[82.47852309512086,27.202264837550754],[82.5167541247158,27.17492782938933],[82.56679636670593,27.184844195094943],[82.5437955846732,27.20253284743469],[82.55529597568957,27.204676926506174],[82.55312022603782,27.215397321863595],[82.51240262541232,27.211913193372432],[82.5211056240193,27.231209905015792],[82.49779402060774,27.23710612246237],[82.52483548056514,27.25291870561457],[82.51115933989703,27.254794774802118],[82.51271344679114,27.275699545749088],[82.49095595027369,27.279719694008122],[82.50711866197236,27.29553227716032],[82.48598280821255,27.298480385883607],[82.49468580681953,27.315365008571547],[82.51271344679114,27.310540830660706],[82.50991605438175,27.31938515683058],[82.49655073509246,27.319653166714517],[82.48194213028789,27.320189186482388],[82.49002348613722,27.334125700447032],[82.49219923578897,27.357442560349426],[82.5136459109276,27.36307076791207],[82.54255229915792,27.368966985358654],[82.57798593634348,27.42230095226182],[82.59850014734565,27.407828418529306],[82.61466285904432,27.418012794118855],[82.62864982109126,27.40139618131485],[82.630825570743,27.41104453713653],[82.65102896036635,27.410776527252594],[82.6594211375945,27.40086016154698],[82.66501592241328,27.415600705163435],[82.66377263689799,27.403540260386336],[82.67931370583902,27.413724635975885],[82.69858463132591,27.407292398761435],[82.69361148926478,27.41720876446705],[82.70666598717524,27.407560408645367],[82.70262530925058,27.421496922610014],[82.71599062853987,27.41292060632408],[82.71567980716105,27.401128171430916],[82.73246416161737,27.416940754583113],[82.75577576502891,27.406220359225692],[82.76478958501471,27.412116576672272],[82.75080262296778,27.43677348599434],[82.74582948090665,27.445617812164215],[82.71878802094925,27.46571855345938],[82.72624773404095,27.478047008120413],[82.73122087610209,27.486355314522413],[82.74085633884552,27.502971927326417],[82.92921409441087,27.501095858138868],[82.95439062609535,27.4681306424148],[83.0348933632099,27.44883393077144],[83.18843912434733,27.453926118566216],[83.21765633395647,27.417476774350984],[83.27236089662891,27.38343951909117],[83.26583364767367,27.365750866751426],[83.29287510763108,27.33546574986671],[83.28479375178173,27.334661720214903],[83.26832021870423,27.325549384161096],[83.24407615115622,27.30008844518722],[83.2512250428691,27.284811881802895],[83.21361565603179,27.264443130623796],[83.22138619050232,27.24568243874831],[83.20242608639425,27.226653736988887],[83.1657491636934,27.224777667801337],[83.17631709057332,27.160187285772874],[83.1579786292229,27.152951018906617],[83.1551812368135,27.165815493335522],[83.12036924238559,27.160723305540746],[83.1296938837502,27.134190327031128],[83.14274838166068,27.122397892137965],[83.147410702343,27.1143575956199]]],[[[83.15828945060171,27.151342959603003],[83.16792491334516,27.148930870647582],[83.16450587817813,27.146518781692162],[83.159532736117,27.144106692736745],[83.15828945060171,27.151342959603003]]]]}},{"type":"Feature","properties":{"id":"maharajganj","name":"Maharajganj","st_nm":"Uttar Pradesh","dt_code":"187","year":"2011_c"},"geometry":{"type":"Polygon","coordinates":[[[83.147410702343,27.1143575956199],[83.14274838166068,27.122397892137965],[83.1296938837502,27.134190327031128],[83.12036924238559,27.160723305540746],[83.15145138026766,27.16527947356765],[83.1579786292229,27.152951018906617],[83.17631709057332,27.160187285772874],[83.1657491636934,27.224777667801337],[83.20242608639425,27.226653736988887],[83.22138619050232,27.24568243874831],[83.21361565603179,27.264443130623796],[83.2512250428691,27.284811881802895],[83.2437653297774,27.299284415535414],[83.26863104008306,27.317777097526967],[83.28479375178173,27.334661720214903],[83.3429173496212,27.33546574986671],[83.38767562817138,27.375399222573105],[83.38549987851964,27.39013976618956],[83.40974394606765,27.413188616208014],[83.384878235762,27.43623746622647],[83.40259505435478,27.456874227289507],[83.38891891368667,27.471346761022026],[83.3954461626419,27.47938705754009],[83.61488605608932,27.46920268195054],[83.83090691436969,27.370039024894396],[83.86416480190351,27.347258184759873],[83.86229987363058,27.33546574986671],[83.83681252056729,27.32233326555387],[83.86416480190351,27.31027282077677],[83.91016636596896,27.323673314973547],[83.93036975559231,27.313756949267933],[83.93130221972878,27.296336306812123],[83.92197757836415,27.286687950990444],[83.91109883010543,27.278379644588444],[83.88125997773865,27.283739842267153],[83.86696219431289,27.293388198088834],[83.84054237711314,27.2810597434278],[83.84955619709893,27.25345472538244],[83.81691995232276,27.241126270721406],[83.80759531095813,27.24970258700734],[83.7948516344265,27.244342389328633],[83.80759531095813,27.228529806176436],[83.82127145162625,27.23228194455153],[83.83277184264261,27.212181203256367],[83.82127145162625,27.199852748595333],[83.79889231235116,27.212449213140303],[83.81256845301927,27.18618424451462],[83.78241877927367,27.166083503219458],[83.82531212955092,27.174391809621458],[83.811325167504,27.161795345076488],[83.80106806200291,27.11006943747693],[83.77651317307607,27.106317299101836],[83.77278331653022,27.08916466652996],[83.74574185657282,27.07710422175286],[83.76781017446909,27.073888103145634],[83.76812099584791,27.053519351966536],[83.72988996625297,27.055395421154085],[83.73703885796584,27.03690273916253],[83.75568814069509,27.035294679858918],[83.745431035194,27.01599796821556],[83.76532360343853,27.00232946413485],[83.73299818004118,26.989464989705944],[83.72460600281302,26.951675596071034],[83.68202347391458,26.96507609026781],[83.67891526012637,26.94711942804413],[83.62452151883275,26.955695744330068],[83.62669726848449,26.930234805356193],[83.61208866367993,26.928894755936515],[83.60649387886116,26.91174212336464],[83.59095280992011,26.915762271623674],[83.58908788164719,26.93264689431161],[83.57074942029678,26.933986943731288],[83.55800574376512,26.92005042976664],[83.55365424446164,26.889765312881927],[83.51822060727608,26.894053471024897],[83.49801721765273,26.89780560939999],[83.49677393213744,26.909062024525284],[83.47097575769533,26.92621465709716],[83.4734623287259,26.942563260017227],[83.4526372963449,26.951675596071034],[83.43087979982747,26.94577937862445],[83.43802869154034,26.95810783328549],[83.35659349028931,26.962395991428455],[83.35503938339521,26.949799526883485],[83.3429173496212,26.952211615838905],[83.32395724551314,26.968560218758974],[83.32302478137669,26.989196979822008],[83.35130952684936,27.0004533949473],[83.35410691925875,27.02618234380511],[83.36747223854803,27.023502244965755],[83.36218827510808,27.047355124636017],[83.38767562817138,27.058075519993437],[83.38363495024672,27.07174402407415],[83.40756819641591,27.088092626994218],[83.3895405564443,27.082732429315506],[83.36063416821398,27.100153071771317],[83.35690431166813,27.088896656646025],[83.34198488548475,27.093720834556866],[83.33639010066597,27.081660389779767],[83.31338931863324,27.08728859734241],[83.29411839314636,27.06102362871673],[83.29815907107103,27.041458907189437],[83.26987432559834,27.02993448218021],[83.27049596835599,27.078176261288604],[83.25060340011146,27.065579796743634],[83.23785972357982,27.070403974654475],[83.22356194015406,27.090236706065703],[83.17445216230038,27.094524864208672],[83.16543834231459,27.108193368289385],[83.1536271299194,27.09747297293196],[83.14989727337355,27.115429635155643],[83.147410702343,27.1143575956199]]]}},{"type":"Feature","properties":{"id":"kushinagar","name":"Kushinagar","st_nm":"Uttar Pradesh","dt_code":"189","year":"2011_c"},"geometry":{"type":"Polygon","coordinates":[[[83.54588370999112,26.888693273346185],[83.55800574376512,26.92005042976664],[83.57074942029678,26.933986943731288],[83.58908788164719,26.93264689431161],[83.59095280992011,26.915762271623674],[83.60649387886116,26.91174212336464],[83.61208866367993,26.928894755936515],[83.62669726848449,26.930234805356193],[83.62452151883275,26.955695744330068],[83.67891526012637,26.94711942804413],[83.68202347391458,26.96507609026781],[83.72367353867655,26.95194360595497],[83.73299818004118,26.989464989705944],[83.76003963999858,27.0004533949473],[83.74885007036103,27.010369760652914],[83.75568814069509,27.035294679858918],[83.73703885796584,27.03690273916253],[83.72988996625297,27.055395421154085],[83.76812099584791,27.053519351966536],[83.76781017446909,27.073888103145634],[83.74574185657282,27.07710422175286],[83.77278331653022,27.08916466652996],[83.77651317307607,27.106317299101836],[83.80106806200291,27.11006943747693],[83.811325167504,27.161795345076488],[83.82531212955092,27.174391809621458],[83.78241877927367,27.166083503219458],[83.81256845301927,27.18618424451462],[83.79920313372997,27.210573143952754],[83.82127145162625,27.199852748595333],[83.83277184264261,27.212181203256367],[83.82127145162625,27.23228194455153],[83.80759531095813,27.228529806176436],[83.7948516344265,27.244342389328633],[83.80759531095813,27.24970258700734],[83.81691995232276,27.241126270721406],[83.84955619709893,27.25345472538244],[83.83743416332493,27.278915664356315],[83.86696219431289,27.293388198088834],[83.87815176395044,27.289636059713736],[83.90736897355958,27.275699545749088],[83.90519322390784,27.25747487364147],[83.91172047286307,27.246486468400114],[83.96860078518726,27.2245096579174],[83.96735749967198,27.20950110441701],[83.9872500679165,27.197172649755977],[83.99097992446235,27.18564822474675],[83.99408813825056,27.175195839273265],[83.95896532244382,27.136870425870484],[83.946532467291,27.090772725833574],[83.96456010726259,27.084072478735184],[84.01646727752565,27.10551326945003],[84.03045423957258,27.097740982815896],[84.01677809890447,27.07174402407415],[83.99999374444815,27.068527905466926],[84.04941434368064,27.043334976376986],[84.03729230990663,27.009029711233236],[84.05687405677233,26.98973299958988],[84.04568448713479,26.982228722839686],[84.0550091284994,26.96025191235697],[84.03200834646668,26.94122321059755],[84.04661695127125,26.93934714141],[84.05998227056054,26.92031843965058],[84.05252255746885,26.90638192568593],[84.06029309193936,26.888157253578314],[84.09821330015549,26.876096808801215],[84.1103353339295,26.8986096390518],[84.11810586840001,26.887621233810442],[84.1463906138727,26.885477154738957],[84.14079582905393,26.852779948898824],[84.16628318211723,26.8337512471394],[84.18182425105826,26.833483237255464],[84.19021642828642,26.85840815646147],[84.21943363789556,26.87154064077431],[84.24678591923178,26.859748205881147],[84.2561105605964,26.849027810523726],[84.2592187743846,26.836967365746627],[84.25020495439881,26.81927871340688],[84.25984041714224,26.80453816979043],[84.23248813580602,26.75361629184268],[84.2455426337165,26.735123609851126],[84.28594941296319,26.750132163351516],[84.30615280258652,26.749596143583645],[84.33039687013455,26.68393372201944],[84.41058878587029,26.670265217938727],[84.41307535690085,26.638104031866465],[84.41960260585608,26.626043587089367],[84.37950664798822,26.61451916208014],[84.30739608810181,26.61639523126769],[84.30024719638894,26.60379876672272],[84.2815979136597,26.59951060857975],[84.20109517654514,26.62470353766969],[84.16037757591963,26.624435527785753],[84.15882346902552,26.636227962678916],[84.1118894408236,26.630599755116272],[84.0864020877603,26.639176071402208],[84.08919948016968,26.60299473707091],[84.05221173609003,26.55153683935529],[84.00994002857041,26.578873847516714],[83.96300600036848,26.628723685928723],[83.95741121554971,26.674821385965632],[83.90581486666548,26.690901979001765],[83.88778722669387,26.73431958019932],[83.84054237711314,26.758976489521388],[83.83183937850616,26.744503955788872],[83.80914941785224,26.75040017323545],[83.80821695371579,26.724939234261576],[83.77154003101494,26.70081834470738],[83.75693142621037,26.706714562153962],[83.75009335587632,26.69304605807325],[83.72336271729773,26.69840625575196],[83.72180861040363,26.687417850510602],[83.69787536423443,26.68339770225157],[83.69849700699208,26.6994782952877],[83.68015854564166,26.702158394127057],[83.65467119257836,26.660348852233113],[83.62794055399978,26.661420891768856],[83.62452151883275,26.672677306894148],[83.61550769884695,26.703498443546735],[83.62327823331746,26.72708331333306],[83.60991291402819,26.739411767994095],[83.62203494780219,26.75468833137842],[83.58660131061663,26.760316538941066],[83.59561513060243,26.79006563605791],[83.58504720372252,26.807754288397653],[83.56111395755333,26.823834881433786],[83.56235724306862,26.836431345978756],[83.5244370348525,26.852779948898824],[83.5350049617324,26.861624275068696],[83.54619453136993,26.888693273346185],[83.54588370999112,26.888693273346185]]]}},{"type":"Feature","properties":{"id":"basti","name":"Basti","st_nm":"Uttar Pradesh","dt_code":"185","year":"2011_c"},"geometry":{"type":"Polygon","coordinates":[[[82.55902583223542,27.081928399663703],[82.585756470814,27.104977249682157],[82.63610953418295,27.104709239798222],[82.65879949483686,27.12320192178977],[82.65973195897332,27.114625605503836],[82.71816637819161,27.10953341770906],[82.72220705611628,27.100153071771317],[82.76354629949944,27.11194550666448],[82.79058775945684,27.08032034036009],[82.79369597324504,27.048159154287823],[82.8185616835507,27.038510798466145],[82.82944043180942,27.019214086822785],[82.86456324761616,27.037974778698274],[82.87917185242073,27.01304985949227],[82.89005060067946,27.014121899028012],[82.90372674134757,26.99991737517943],[82.89937524204407,26.980888673420008],[82.91398384684865,26.96641613968749],[82.90776741927223,26.94175923036542],[82.91647041787921,26.93452296349916],[82.93076820130497,26.927822716400772],[82.9149163109851,26.91790635069516],[82.88259088758775,26.931306844891935],[82.88507745861833,26.94175923036542],[82.86984721105611,26.940151171061807],[82.84871135729631,26.916834311159416],[82.87202296070785,26.915494261739738],[82.87015803243493,26.90155774777509],[82.85492778487271,26.8986096390518],[82.8726446034655,26.87877690764057],[82.84653560764455,26.876096808801215],[82.84000835868932,26.85680009715786],[82.82260236147536,26.85009985005947],[82.82695386077886,26.838843434934176],[82.83938671593168,26.8458116919165],[82.85679271314564,26.830535128532176],[82.88259088758775,26.82973109888037],[82.88694238689125,26.77880922093262],[82.93170066544143,26.790869665709717],[82.91895698890978,26.760852558708937],[82.93760627163903,26.7643366872001],[82.94071448542724,26.751472212771194],[82.96340444608114,26.740215797645902],[82.97770222950689,26.707786601689705],[82.96526937435407,26.690365959233894],[82.9702425164152,26.672945316778083],[82.94226859232133,26.677769494688924],[82.91678123925803,26.65579268420621],[82.93294395095671,26.618539310339173],[82.90776741927223,26.63595995279498],[82.89471292136177,26.61023100393717],[82.86860392554082,26.615859211499817],[82.85990092693385,26.601118667883362],[82.82975125318825,26.607282895213878],[82.81949414768715,26.568689471927165],[82.80675047115551,26.56708141262355],[82.71226077199402,26.554752957962517],[82.66284017276153,26.60433478649059],[82.57705347220701,26.60433478649059],[82.47323913168091,26.65230855571505],[82.44526520758704,26.639444081286143],[82.3921147518087,26.65230855571505],[82.3168959781341,26.72279515519009],[82.28208398370619,26.737803708690482],[82.24509623962652,26.80400215002256],[82.23670406239836,26.808290308165525],[82.23794734791365,26.818742693639013],[82.25162348858176,26.81097040700488],[82.25628580926406,26.82356687154985],[82.23048763482194,26.86805651228315],[82.24944773893,26.896197550096378],[82.23390666998897,26.919782419882708],[82.25659663064289,26.94122321059755],[82.27431344923566,26.936131022802773],[82.31565269261881,26.977940564696716],[82.35357290083493,26.93211087454374],[82.37812778976178,26.935863012918837],[82.38838489526286,26.94953151699955],[82.43531892346478,26.927018686748966],[82.44433274345059,26.93157485477587],[82.4881585578643,26.90343381696264],[82.51115933989703,26.946851418160193],[82.56213404602363,26.964808080383875],[82.56306651016008,26.986784890866588],[82.5842023639199,27.0004533949473],[82.61373039490786,27.000185385063364],[82.58078332875287,27.019482096706724],[82.57114786600943,27.012781849608334],[82.56555308119066,27.046283085100274],[82.5543635115531,27.0494992037075],[82.56555308119066,27.067991885699055],[82.56120158188716,27.077640241520733],[82.55902583223542,27.081928399663703]]]}},{"type":"Feature","properties":{"id":"gorakhpur","name":"Gorakhpur","st_nm":"Uttar Pradesh","dt_code":"188","year":"2011_c"},"geometry":{"type":"Polygon","coordinates":[[[83.12036924238559,27.09988506188738],[83.11974759962794,27.113017546200222],[83.1296938837502,27.107657348521514],[83.147410702343,27.1143575956199],[83.1536271299194,27.09747297293196],[83.16543834231459,27.108193368289385],[83.17445216230038,27.094524864208672],[83.22294029739642,27.090236706065703],[83.23692725944335,27.062631688020343],[83.25060340011146,27.065579796743634],[83.27049596835599,27.078176261288604],[83.26987432559834,27.02993448218021],[83.29815907107103,27.041458907189437],[83.29411839314636,27.06102362871673],[83.31338931863324,27.08728859734241],[83.33639010066597,27.081660389779767],[83.34198488548475,27.093720834556866],[83.35690431166813,27.088896656646025],[83.36063416821398,27.100153071771317],[83.3895405564443,27.082732429315506],[83.40756819641591,27.088092626994218],[83.38363495024672,27.07174402407415],[83.38767562817138,27.058075519993437],[83.36218827510808,27.047355124636017],[83.36747223854803,27.023502244965755],[83.35410691925875,27.02618234380511],[83.35130952684936,27.0004533949473],[83.32302478137669,26.989196979822008],[83.32395724551314,26.968560218758974],[83.33639010066597,26.95783982340155],[83.3534852765011,26.95006753676742],[83.35659349028931,26.962395991428455],[83.43802869154034,26.95810783328549],[83.43087979982747,26.94577937862445],[83.4526372963449,26.951675596071034],[83.4734623287259,26.942563260017227],[83.47097575769533,26.92621465709716],[83.49677393213744,26.909062024525284],[83.49801721765273,26.89780560939999],[83.51822060727608,26.894053471024897],[83.54588370999112,26.888693273346185],[83.54153221068762,26.866984472747408],[83.5244370348525,26.852779948898824],[83.56235724306862,26.836431345978756],[83.56111395755333,26.823834881433786],[83.58504720372252,26.807754288397653],[83.59468266646597,26.79140568547759],[83.58660131061663,26.760316538941066],[83.62203494780219,26.75468833137842],[83.60991291402819,26.739411767994095],[83.62327823331746,26.72708331333306],[83.61550769884695,26.703498443546735],[83.62452151883275,26.672677306894148],[83.62794055399978,26.661420891768856],[83.63198123192444,26.646948358036337],[83.63353533881855,26.623631498133946],[83.61644016298341,26.617199260919495],[83.63198123192444,26.588790213222328],[83.6298054822727,26.578337827748843],[83.62794055399978,26.57002952134684],[83.61333194919521,26.566813402739616],[83.60058827266356,26.515355505023994],[83.55365424446164,26.512407396300702],[83.54619453136993,26.489358546282247],[83.53997810379353,26.50115098117541],[83.49677393213744,26.49284267477341],[83.49366571834923,26.46282556777263],[83.47688136389293,26.458805419513595],[83.50578775212325,26.417531897387526],[83.48651682663636,26.404935432842557],[83.48869257628812,26.3939470276012],[83.52412621347366,26.40171931423533],[83.51076089418439,26.384566681663454],[83.53282921208064,26.38537071131526],[83.54495124585466,26.35562161419842],[83.55551917273456,26.377866434565068],[83.56888449202386,26.37518633572571],[83.5471269955064,26.39207095841365],[83.5831822754496,26.398235185744166],[83.58349309682842,26.362321861296806],[83.61146702092228,26.370094147930935],[83.5996558085271,26.34892136710003],[83.61675098436224,26.34302514965345],[83.61084537816464,26.334716843251446],[83.62234576918101,26.32185236882254],[83.63819765950086,26.3290886356888],[83.62327823331746,26.320780329286798],[83.61861591263516,26.30094759787557],[83.65591447809365,26.318100230447445],[83.66399583394298,26.31408008218841],[83.67114472565585,26.287279093794858],[83.63819765950086,26.273074569946274],[83.62949466089388,26.218668563507364],[83.60835880713408,26.23260507747201],[83.61612934160459,26.247345621088463],[83.57789831200965,26.249757710043884],[83.53531578311122,26.27387859959808],[83.52599114174659,26.27521864901776],[83.46693507977066,26.27521864901776],[83.43460965637331,26.27521864901776],[83.41782530191699,26.284330985071566],[83.41782530191699,26.274146609482017],[83.33856585031772,26.349189376983965],[83.30157810623805,26.34999340663577],[83.22853508221519,26.394751057253004],[83.18284433952854,26.397699165976295],[83.13218045478078,26.38537071131526],[83.08711135485177,26.391266928761844],[83.06784042936489,26.40815155144978],[83.0964359962164,26.433076470655784],[83.09705763897404,26.451837162531273],[83.08369231968474,26.466041686379857],[83.09519271070111,26.48614242767502],[83.16699244920869,26.506779188738058],[83.1881283029685,26.48801849686257],[83.19310144502963,26.517231574211543],[83.204601836046,26.5244678410778],[83.1896824098626,26.531972117827998],[83.17756037608859,26.524735850961736],[83.15487041543469,26.53947639457819],[83.13995098925129,26.562525244596646],[83.13746441822073,26.594418420784976],[83.10949049412686,26.601386677767298],[83.11073377964215,26.619075330107044],[83.13466702581134,26.634887913259238],[83.1324912761596,26.657936763277693],[83.10140913827753,26.658472783045564],[83.11632856446091,26.68446974178731],[83.09021956863998,26.687417850510602],[83.08275985554829,26.702158394127057],[83.09301696104937,26.721991125538285],[83.10824720861159,26.711270730180864],[83.10731474447512,26.72467122437764],[83.13373456167488,26.725743263913383],[83.13124799064431,26.735659629618997],[83.14430248855479,26.743699926137065],[83.13497784719016,26.77693315174507],[83.12503156306789,26.765408726735842],[83.10638228033866,26.768088825575198],[83.11446363618799,26.78175732965591],[83.09736846035285,26.80668224886191],[83.12005842100677,26.819814733174752],[83.11850431411267,26.84232756342534],[83.13466702581134,26.862696314604438],[83.13000470512902,26.877168848336957],[83.138707703736,26.8903013326498],[83.15269466578295,26.872344670426116],[83.21672386982,26.881993026247798],[83.21703469119882,26.89780560939999],[83.20335855053071,26.910134064061026],[83.21579140568355,26.90584590591806],[83.20677758569774,26.935326993150966],[83.22667015394227,26.936667042570644],[83.21175072775887,26.94953151699955],[83.20335855053071,26.939615151293935],[83.19279062365081,26.94470733908871],[83.20864251397066,26.95194360595497],[83.19434473054491,26.965612110035682],[83.22138619050232,26.976332505393103],[83.21143990638005,27.0004533949473],[83.20926415672831,27.013317869376205],[83.16978984161808,26.99991737517943],[83.17196559126982,27.00929772111717],[83.15922191473817,27.016533987983433],[83.15735698646525,27.00286548390272],[83.14989727337355,27.013317869376205],[83.14181591752421,27.006081602509948],[83.14554577407006,27.020554136242467],[83.13746441822073,27.024574284501497],[83.15051891613119,27.0411908973055],[83.13062634788668,27.049767213591437],[83.14958645199474,27.053519351966536],[83.13559948994781,27.064239747323956],[83.12440992031026,27.099081032235574],[83.12036924238559,27.09988506188738]]]}},{"type":"Feature","properties":{"id":"sant-kabir-nagar","name":"Sant Kabir Nagar","st_nm":"Uttar Pradesh","dt_code":"186","year":"2011_c"},"geometry":{"type":"Polygon","coordinates":[[[82.90497002686286,27.0042055333224],[82.91056481168162,27.020286126358528],[82.96278280332349,27.028326422876596],[82.97055333779402,27.048159154287823],[82.98578358535623,27.03395463043924],[83.0078519032525,27.032346571135626],[83.00878436738896,27.04360298626092],[83.0212172225418,27.04655109498421],[83.03458254183107,27.039582838001888],[83.02183886529943,27.064775767091827],[83.0289877570123,27.080052330476153],[83.05074525352975,27.084608498503055],[83.04639375422626,27.0939888444408],[83.12036924238559,27.09747297293196],[83.13559948994781,27.064239747323956],[83.14958645199474,27.053519351966536],[83.13062634788668,27.049767213591437],[83.15051891613119,27.0411908973055],[83.13746441822073,27.024574284501497],[83.14554577407006,27.020554136242467],[83.14057263200894,27.005009562974205],[83.14989727337355,27.013317869376205],[83.15735698646525,27.00286548390272],[83.15922191473817,27.016533987983433],[83.17196559126982,27.00929772111717],[83.1685465561028,26.999381355411558],[83.20926415672831,27.013317869376205],[83.21143990638005,27.0004533949473],[83.22449440429052,26.980352653652137],[83.19434473054491,26.965612110035682],[83.20864251397066,26.95194360595497],[83.19279062365081,26.94470733908871],[83.20335855053071,26.939615151293935],[83.21175072775887,26.94953151699955],[83.22667015394227,26.936667042570644],[83.20677758569774,26.935326993150966],[83.2210753691235,26.913350182668253],[83.20335855053071,26.910134064061026],[83.21703469119882,26.89780560939999],[83.21672386982,26.881993026247798],[83.15269466578295,26.872344670426116],[83.138707703736,26.8903013326498],[83.13000470512902,26.877168848336957],[83.13466702581134,26.862696314604438],[83.11850431411267,26.84232756342534],[83.12005842100677,26.819814733174752],[83.09736846035285,26.80668224886191],[83.11446363618799,26.78175732965591],[83.10638228033866,26.768088825575198],[83.12503156306789,26.765408726735842],[83.13497784719016,26.77693315174507],[83.14430248855479,26.743699926137065],[83.13124799064431,26.735659629618997],[83.13373456167488,26.725743263913383],[83.10731474447512,26.72467122437764],[83.10824720861159,26.711270730180864],[83.09301696104937,26.721991125538285],[83.08275985554829,26.702158394127057],[83.09021956863998,26.687417850510602],[83.11632856446091,26.68446974178731],[83.10140913827753,26.658472783045564],[83.1324912761596,26.657936763277693],[83.13466702581134,26.634887913259238],[83.11073377964215,26.619075330107044],[83.10949049412686,26.601386677767298],[83.13746441822073,26.594418420784976],[83.13995098925129,26.562525244596646],[83.15487041543469,26.53947639457819],[83.17756037608859,26.524735850961736],[83.1896824098626,26.531972117827998],[83.204601836046,26.5244678410778],[83.19310144502963,26.517231574211543],[83.1881283029685,26.48801849686257],[83.16699244920869,26.506779188738058],[83.09519271070111,26.48614242767502],[83.08369231968474,26.466041686379857],[83.09705763897404,26.451837162531273],[83.0964359962164,26.433076470655784],[83.07063782177428,26.4105636404052],[83.01966311564769,26.474618002665792],[82.89968606342289,26.514551475372187],[82.84435985799281,26.558773106221548],[82.83130536008234,26.563865294016324],[82.81949414768715,26.568689471927165],[82.82508893250593,26.60192269753517],[82.85990092693385,26.601118667883362],[82.86860392554082,26.615859211499817],[82.89471292136177,26.61023100393717],[82.90776741927223,26.63595995279498],[82.93325477233553,26.61746727080343],[82.91678123925803,26.65579268420621],[82.94226859232133,26.677769494688924],[82.96931005227873,26.67321332666202],[82.96526937435407,26.690365959233894],[82.97770222950689,26.707786601689705],[82.9658910171117,26.73914375811016],[82.94071448542724,26.751472212771194],[82.93760627163903,26.7643366872001],[82.91895698890978,26.760852558708937],[82.93170066544143,26.790869665709717],[82.88694238689125,26.77880922093262],[82.88259088758775,26.82973109888037],[82.85679271314564,26.830535128532176],[82.83938671593168,26.8458116919165],[82.82695386077886,26.838843434934176],[82.82260236147536,26.85009985005947],[82.84000835868932,26.85680009715786],[82.84653560764455,26.876096808801215],[82.8726446034655,26.87877690764057],[82.85492778487271,26.8986096390518],[82.87015803243493,26.90155774777509],[82.87202296070785,26.915494261739738],[82.84871135729631,26.916834311159416],[82.86984721105611,26.940151171061807],[82.88507745861833,26.94175923036542],[82.88259088758775,26.931306844891935],[82.9149163109851,26.91790635069516],[82.9267275233803,26.925410627445352],[82.91647041787921,26.93452296349916],[82.90776741927223,26.94175923036542],[82.91398384684865,26.96641613968749],[82.89937524204407,26.980888673420008],[82.9071457765146,26.998845335643686],[82.90497002686286,27.0042055333224]]]}},{"type":"Feature","properties":{"id":"deoria","name":"Deoria","st_nm":"Uttar Pradesh","dt_code":"190","year":"2011_c"},"geometry":{"type":"Polygon","coordinates":[[[83.62794055399978,26.661420891768856],[83.65467119257836,26.660348852233113],[83.68015854564166,26.702158394127057],[83.69849700699208,26.6994782952877],[83.69538879320388,26.68339770225157],[83.72180861040363,26.687417850510602],[83.72336271729773,26.69840625575196],[83.74760678484574,26.69358207784112],[83.75693142621037,26.706714562153962],[83.77029674549966,26.700282324939508],[83.80821695371579,26.724939234261576],[83.80914941785224,26.75040017323545],[83.83183937850616,26.744503955788872],[83.84054237711314,26.758976489521388],[83.88778722669387,26.73431958019932],[83.90581486666548,26.690901979001765],[83.95741121554971,26.674821385965632],[83.96300600036848,26.628723685928723],[84.00994002857041,26.578873847516714],[84.05190091471121,26.551268829471354],[84.00869674305513,26.521787742238445],[83.97668214103659,26.533580177131608],[83.97481721276367,26.508119238157732],[83.95088396659447,26.50892326780954],[83.94031603971457,26.525271870729608],[83.90799061631722,26.51910764339909],[83.9151395080301,26.502759040479024],[83.90799061631722,26.447012984620432],[83.99160156721999,26.43227244100398],[83.9978179947964,26.44647696485256],[84.0173997416621,26.447549004388303],[84.0338732747396,26.41190368982488],[84.06371212710638,26.400915284583522],[84.07521251812275,26.387514790386746],[84.10007822842842,26.384030661895583],[84.12121408218822,26.385102701431325],[84.15726936213142,26.375722355493583],[84.17685110899713,26.370630167698806],[84.17281043107245,26.333644803715703],[84.18617575036174,26.31300804265267],[84.17467535934537,26.292371281589634],[84.17685110899713,26.26503427342821],[84.16162086143491,26.256993976910145],[84.16628318211723,26.241181393757948],[84.15105293455501,26.25779800656195],[84.12183572494587,26.258602036213755],[84.11748422564237,26.240109354222206],[84.0910644084426,26.23367711700775],[84.0864020877603,26.218668563507364],[84.02268370510205,26.237697265266785],[84.0127374209798,26.23260507747201],[84.03107588233021,26.217328514087686],[84.02858931129965,26.19910384198007],[84.01056167132805,26.189723496042326],[84.00900756443394,26.181683199524258],[84.0338732747396,26.160242408809417],[84.02765684716319,26.14228574658574],[84.04972516505946,26.129957291924704],[84.05594159263588,26.10020819480786],[84.05283337884767,26.091363868637988],[84.01522399201036,26.114144708772507],[83.97730378379424,26.11521674830825],[83.96331682174731,26.13183336111225],[83.9061256880443,26.122453015174507],[83.87317862188931,26.155686240782515],[83.86478644466115,26.181147179756387],[83.83992073435549,26.224028761186073],[83.83463677091554,26.23260507747201],[83.77744563721254,26.23260507747201],[83.74263364278461,26.266106312963952],[83.62949466089388,26.218668563507364],[83.63819765950086,26.273074569946274],[83.67114472565585,26.287279093794858],[83.66648240497355,26.312740032768733],[83.65591447809365,26.318100230447445],[83.61861591263516,26.30094759787557],[83.62327823331746,26.320780329286798],[83.63819765950086,26.3290886356888],[83.62234576918101,26.32185236882254],[83.61084537816464,26.334716843251446],[83.61675098436224,26.34302514965345],[83.5996558085271,26.34892136710003],[83.61146702092228,26.370094147930935],[83.58349309682842,26.362321861296806],[83.5831822754496,26.398235185744166],[83.5471269955064,26.39207095841365],[83.56888449202386,26.37518633572571],[83.55551917273456,26.377866434565068],[83.54495124585466,26.35562161419842],[83.53282921208064,26.38537071131526],[83.51076089418439,26.384566681663454],[83.52412621347366,26.40171931423533],[83.48869257628812,26.3939470276012],[83.48651682663636,26.404935432842557],[83.50578775212325,26.417531897387526],[83.47688136389293,26.458805419513595],[83.49366571834923,26.46282556777263],[83.49366571834923,26.488822526514376],[83.5350049617324,26.50061496140754],[83.54619453136993,26.489358546282247],[83.55365424446164,26.512407396300702],[83.60058827266356,26.515355505023994],[83.61333194919521,26.56654539285568],[83.62700808986332,26.569761511462907],[83.6298054822727,26.578337827748843],[83.63198123192444,26.588790213222328],[83.61644016298341,26.617199260919495],[83.63353533881855,26.623631498133946],[83.63198123192444,26.646948358036337],[83.62794055399978,26.661420891768856]]]}},{"type":"Feature","properties":{"id":"ambedkar-nagar","name":"Ambedkar Nagar","st_nm":"Uttar Pradesh","dt_code":"178","year":"2011_c"},"geometry":{"type":"Polygon","coordinates":[[[82.47323913168091,26.65230855571505],[82.57705347220701,26.60433478649059],[82.66284017276153,26.60433478649059],[82.71226077199402,26.554752957962517],[82.80675047115551,26.56708141262355],[82.81949414768715,26.568689471927165],[82.83130536008234,26.563865294016324],[82.84435985799281,26.558773106221548],[82.89968606342289,26.514551475372187],[83.01966311564769,26.474618002665792],[83.07063782177428,26.4105636404052],[83.08400314106356,26.3939470276012],[83.13218045478078,26.38537071131526],[83.11353117205154,26.358033703153836],[83.10886885136922,26.28352695541976],[83.08400314106356,26.279774817044665],[83.07498932107777,26.291031232169956],[83.06411057281905,26.279774817044665],[83.04110979078631,26.295855410080794],[83.03675829148283,26.308183864741828],[83.03862321975575,26.316224161259896],[83.03023104252759,26.327212566501252],[83.02214968667825,26.337932961858673],[82.98733769225034,26.352137485707257],[82.97241826606694,26.34650927814461],[82.96526937435407,26.358569722921708],[82.97366155158223,26.383226632243776],[82.95314734058006,26.389926879342166],[82.93667380750256,26.382154592708034],[82.93543052198727,26.41002762063733],[82.92734916613794,26.411367670057007],[82.91398384684865,26.410831650289136],[82.91647041787921,26.393142997949393],[82.88196924483012,26.382690612475905],[82.87015803243493,26.356961663618094],[82.89626702825586,26.344633208957063],[82.88228006620893,26.325336497313703],[82.86052256969148,26.319172269983184],[82.87202296070785,26.311399983349055],[82.88041513793601,26.28593904437518],[82.8710904965714,26.27387859959808],[82.88600992275478,26.24573756178485],[82.86238749796442,26.218132543739493],[82.86860392554082,26.206876128614198],[82.856171070388,26.20446403965878],[82.8726446034655,26.1865073774351],[82.88507745861833,26.18221921929213],[82.88290170896659,26.172838873354387],[82.8726446034655,26.171766833818644],[82.86611735451027,26.156758280318257],[82.82135907596009,26.18704339720297],[82.77908736844047,26.193207624533486],[82.75919480019594,26.211968316408974],[82.74893769469486,26.224028761186073],[82.75173508710425,26.26262218447279],[82.73122087610209,26.24225343329369],[82.68925998996129,26.26744636238363],[82.68459766927897,26.257261986794077],[82.66501592241328,26.252169798999304],[82.66315099414035,26.261818154820983],[82.64916403209342,26.24225343329369],[82.6398393907288,26.252705818767176],[82.63362296315239,26.24225343329369],[82.6053382176797,26.26449825366034],[82.57891840047995,26.256993976910145],[82.57798593634348,26.2679823821515],[82.54970119087079,26.2883511333306],[82.53944408536971,26.2800428269286],[82.51084851851822,26.293443321125373],[82.483496237182,26.281918896116146],[82.47323913168091,26.277362728089244],[82.45241409929992,26.284867004839437],[82.43594056622243,26.307647844973957],[82.41946703314493,26.289155162982407],[82.40485842834036,26.289959192634214],[82.39833117938512,26.300679587991635],[82.41729128349319,26.319440279867123],[82.4011285717945,26.325872517081574],[82.40050692903687,26.356425643850223],[82.38216846768644,26.365001960136162],[82.37874943251941,26.376794395029325],[82.32653144087755,26.386174740967068],[82.31534187124,26.379206483984746],[82.3184500850282,26.392874988065458],[82.30135490919307,26.405739462494363],[82.28021905543326,26.390194889226102],[82.2659212720075,26.403863393306814],[82.24913691755118,26.392874988065458],[82.22240627897261,26.408419561333716],[82.25348841685468,26.421552045646557],[82.2659212720075,26.446744974736497],[82.28488137611556,26.485070388139277],[82.29793587402604,26.48667844744289],[82.31534187124,26.50945928757741],[82.3063280512542,26.512943416068573],[82.30974708642123,26.526611920149286],[82.33616690362098,26.57860583763278],[82.37533039735239,26.572709620186195],[82.37719532562531,26.55930912598942],[82.36569493460895,26.557165046917937],[82.3709788980489,26.546980671328384],[82.38310093182291,26.54537261202477],[82.39366885870281,26.543764552721157],[82.40175021455215,26.54269251318542],[82.41418306970498,26.558237086453676],[82.42754838899427,26.54724868121232],[82.4430894579353,26.561185195176968],[82.46484695445275,26.582357976007877],[82.45023834964817,26.594418420784976],[82.45303574205757,26.605138816142397],[82.47603652409029,26.610499013821105],[82.46795516824096,26.629795725464465],[82.47323913168091,26.65230855571505]]]}},{"type":"Feature","properties":{"id":"azamgarh","name":"Azamgarh","st_nm":"Uttar Pradesh","dt_code":"191","year":"2011_c"},"geometry":{"type":"Polygon","coordinates":[[[83.13218045478078,26.38537071131526],[83.17756037608859,26.396359116556617],[83.22853508221519,26.394751057253004],[83.30157810623805,26.34999340663577],[83.33701174342362,26.350261416519707],[83.41782530191699,26.274146609482017],[83.41782530191699,26.284330985071566],[83.43460965637331,26.27521864901776],[83.46817836528595,26.27950680716073],[83.4510831894508,26.223224731534266],[83.40912230331001,26.168014695443546],[83.42217680122049,26.133977440183735],[83.41160887434057,26.123257044826314],[83.41906858743228,26.110660580281344],[83.3593908826987,26.0688510383874],[83.37182373785153,26.057058603494237],[83.31960574620965,26.04928631686011],[83.31867328207319,26.03588582266333],[83.33110613722602,26.03132965463643],[83.29567250004045,25.94610251154493],[83.34105242134828,25.953070768527255],[83.37493195163974,25.935382116187508],[83.3743103088821,25.926537790017637],[83.35876923994105,25.926805799901572],[83.35503938339521,25.915281374892345],[83.33918749307536,25.924661720830088],[83.351931169607,25.914477345240538],[83.34757967030352,25.901612870811633],[83.31991656758848,25.890892475454212],[83.32488970964961,25.86221541787311],[83.31556506828498,25.83943457773859],[83.32768710205899,25.843990745765492],[83.35099870547054,25.823621994586393],[83.32302478137669,25.814509658532586],[83.3202273889673,25.796016976541033],[83.30468632002626,25.785564591067548],[83.30313221313216,25.755547484066767],[83.28323964488763,25.756351513718574],[83.27484746765947,25.77645225501374],[83.21858879809292,25.75903161255793],[83.2182779767141,25.768947978263544],[83.19372308778728,25.778596334085226],[83.18906076710496,25.76626787942419],[83.21703469119882,25.762515741049093],[83.21392647741062,25.73142659451257],[83.24158958012566,25.70864575437805],[83.1940339091661,25.7022135171636],[83.18719583883204,25.676752578189724],[83.14865398785827,25.65718785666243],[83.14865398785827,25.636015075831523],[83.12068006376441,25.654507757823076],[83.06628632247079,25.65236367875159],[83.07871917762361,25.682112775868433],[83.05634003834852,25.68345282528811],[83.04079896940749,25.69149312180618],[83.0439071831957,25.70167749739573],[83.03271761355815,25.697657349136694],[83.00909518876779,25.715077991592505],[82.99852726188787,25.684256854939918],[82.98205372881038,25.680236706680887],[82.92393013097092,25.732498634048312],[82.92921409441087,25.757423553254316],[82.89937524204407,25.774844195710127],[82.82539975388475,25.76975200791535],[82.82229154009654,25.78234847246032],[82.80612882839787,25.78851269979084],[82.80861539942843,25.805933342246647],[82.78561461739571,25.82683811319362],[82.75453247951363,25.83702248878317],[82.77287094086405,25.89625267313292],[82.72593691266214,25.99166419181397],[82.73122087610209,26.025433437189847],[82.70324695200821,26.02462940753804],[82.72189623473746,26.035617812779396],[82.69858463132591,26.0401739808063],[82.71257159337284,26.050626366279786],[82.69703052443181,26.06724297908379],[82.70666598717524,26.094847997129147],[82.68366520514252,26.09886814538818],[82.68024616997549,26.116556797727927],[82.66750249344383,26.123257044826314],[82.66625920792856,26.135853509371284],[82.67434056377789,26.14737793438051],[82.6923682037495,26.15649027043432],[82.68304356238488,26.16319051753271],[82.68894916858247,26.208752197801747],[82.67154317136851,26.228852939096914],[82.68086781273313,26.248953680392077],[82.68459766927897,26.257261986794077],[82.68925998996129,26.26744636238363],[82.73122087610209,26.24225343329369],[82.74862687331604,26.259674075749498],[82.74893769469486,26.224028761186073],[82.75919480019594,26.211968316408974],[82.77908736844047,26.193207624533486],[82.82135907596009,26.18704339720297],[82.86611735451027,26.156758280318257],[82.8726446034655,26.171766833818644],[82.88290170896659,26.172838873354387],[82.88507745861833,26.18221921929213],[82.8726446034655,26.1865073774351],[82.856171070388,26.20446403965878],[82.86860392554082,26.206876128614198],[82.86238749796442,26.218132543739493],[82.88600992275478,26.24573756178485],[82.8710904965714,26.27387859959808],[82.88041513793601,26.28593904437518],[82.87202296070785,26.311399983349055],[82.86052256969148,26.319172269983184],[82.88228006620893,26.325336497313703],[82.89626702825586,26.344633208957063],[82.87015803243493,26.356961663618094],[82.88196924483012,26.382690612475905],[82.91647041787921,26.393142997949393],[82.91398384684865,26.410831650289136],[82.92734916613794,26.411367670057007],[82.93543052198727,26.41002762063733],[82.93667380750256,26.382154592708034],[82.95314734058006,26.389926879342166],[82.97366155158223,26.383226632243776],[82.96526937435407,26.358569722921708],[82.97241826606694,26.34650927814461],[82.98733769225034,26.352137485707257],[83.01935229426887,26.337128932206866],[83.03023104252759,26.327212566501252],[83.03862321975575,26.316224161259896],[83.03675829148283,26.308183864741828],[83.04110979078631,26.295855410080794],[83.06379975144023,26.279774817044665],[83.07498932107777,26.291031232169956],[83.08400314106356,26.279774817044665],[83.10886885136922,26.28352695541976],[83.11322035067272,26.355353604314484],[83.13218045478078,26.38537071131526]]]}},{"type":"Feature","properties":{"id":"mau","name":"Mau","st_nm":"Uttar Pradesh","dt_code":"192","year":"2011_c"},"geometry":{"type":"Polygon","coordinates":[[[83.46693507977066,26.27521864901776],[83.52599114174659,26.27521864901776],[83.53531578311122,26.27387859959808],[83.57789831200965,26.249757710043884],[83.61612934160459,26.247345621088463],[83.60835880713408,26.23260507747201],[83.62949466089388,26.218668563507364],[83.74170117864816,26.265838303080017],[83.77744563721254,26.23260507747201],[83.83463677091554,26.23260507747201],[83.83992073435549,26.224028761186073],[83.86136740949412,26.183827278595743],[83.84396141228017,26.191599565229875],[83.8085277750946,26.190527525694133],[83.8069736682005,26.179539120452777],[83.77868892272781,26.162654497764837],[83.80510873992758,26.1337094302998],[83.7948516344265,26.107444461674117],[83.76128292551385,26.1012802343436],[83.76408031792324,26.092167898289794],[83.7528907482857,26.09645605643276],[83.75693142621037,26.08814775003076],[83.74232282140579,26.090291829102245],[83.70813246973552,26.09404396747734],[83.68140183115693,26.07367521629824],[83.68761825873335,26.059470692449658],[83.67736115323227,26.04339009941353],[83.67705033185345,26.010960903457327],[83.70160522078028,26.008816824385843],[83.7274033952224,26.00667274531436],[83.76252621102914,25.994344290653324],[83.77589153031843,26.000240508099907],[83.77899974410664,25.98630399413526],[83.76563442481735,25.97424354935816],[83.78801356409244,25.976923648197516],[83.78117549375838,25.933238037116023],[83.80075724062408,25.92948589874093],[83.8069736682005,25.915817394660216],[83.79764902683588,25.90241690046344],[83.76594524619617,25.900272821391955],[83.73797132210231,25.88365620858795],[83.72180861040363,25.85658721031046],[83.72305189591891,25.865967556248208],[83.70098357802264,25.863823477176723],[83.64565737259255,25.90000481150802],[83.63073794640917,25.869451684739367],[83.59592595198124,25.884460238239758],[83.54961356653696,25.865699546364272],[83.49708475351628,25.86409148706066],[83.48154368457523,25.839702587622526],[83.4613402949519,25.850959002747818],[83.44548840463203,25.840238607390397],[83.42435255087223,25.84827890390846],[83.40010848332422,25.840238607390397],[83.40041930470304,25.823353984702457],[83.384878235762,25.821745925398844],[83.37151291647271,25.79735702596071],[83.36249909648691,25.811025530041423],[83.34944459857644,25.812097569577166],[83.35472856201639,25.820405875979166],[83.32768710205899,25.843990745765492],[83.31556506828498,25.83943457773859],[83.32488970964961,25.86221541787311],[83.31991656758848,25.890892475454212],[83.34757967030352,25.901612870811633],[83.35006624133408,25.909653167329697],[83.33918749307536,25.924661720830088],[83.35503938339521,25.915281374892345],[83.35876923994105,25.926805799901572],[83.37213455923035,25.924125701062216],[83.37493195163974,25.935382116187508],[83.34105242134828,25.953070768527255],[83.29567250004045,25.94610251154493],[83.33110613722602,26.03132965463643],[83.31867328207319,26.03588582266333],[83.31960574620965,26.04928631686011],[83.37182373785153,26.057058603494237],[83.3593908826987,26.0688510383874],[83.41906858743228,26.110660580281344],[83.41160887434057,26.123257044826314],[83.42217680122049,26.133977440183735],[83.40912230331001,26.168014695443546],[83.4510831894508,26.223224731534266],[83.46693507977066,26.27521864901776]]]}},{"type":"Feature","properties":{"id":"ballia","name":"Ballia","st_nm":"Uttar Pradesh","dt_code":"193","year":"2011_c"},"geometry":{"type":"Polygon","coordinates":[[[83.85888083846355,26.18409528847968],[83.87317862188931,26.155686240782515],[83.90022008184671,26.127545202969284],[83.96331682174731,26.13183336111225],[83.97730378379424,26.11521674830825],[84.01522399201036,26.114144708772507],[84.05252255746885,26.09002381921831],[84.05594159263588,26.10020819480786],[84.10380808497426,26.092703918057666],[84.17249960969363,26.02462940753804],[84.17001303866307,25.987644043554937],[84.17591864486066,25.99648836972481],[84.19643285586282,25.987912053438873],[84.20700078274272,25.99997249821597],[84.29682816122191,25.945298481893122],[84.35401929492492,25.9586989760899],[84.41183207138556,25.930825948160603],[84.42768396170543,25.891160485338148],[84.4724422402556,25.8817801394004],[84.48953741609074,25.88848038649879],[84.51098409122937,25.871327753926916],[84.5339848732621,25.876151931837757],[84.54393115738436,25.858999299265882],[84.52310612500338,25.860071338801625],[84.53056583809507,25.831662291104458],[84.54859347806668,25.828446172497234],[84.55076922771842,25.840774627158268],[84.62474471587774,25.791996828282002],[84.62350143036245,25.77109205733503],[84.6135551462402,25.77591623524587],[84.60298721936029,25.76197972128122],[84.62940703656005,25.743219029405736],[84.634691,25.72794246602141],[84.59987900557209,25.732230624164377],[84.56040469046185,25.737054802075217],[84.55729647667366,25.679700686913016],[84.5355389801562,25.690421082270436],[84.53989047945969,25.726870426485668],[84.52901173120097,25.682648795636304],[84.49917287883419,25.674876509002175],[84.49326727263659,25.690689092154372],[84.47057731198268,25.686936953779274],[84.45348213614754,25.714005952056763],[84.42954888997835,25.71105784333347],[84.42675149756896,25.69310118110979],[84.40654810794561,25.69792535902063],[84.40002085899039,25.728746495673217],[84.38416896867052,25.732230624164377],[84.39100703900458,25.74455907882541],[84.37826336247294,25.74402305905754],[84.37515514868473,25.734642713119797],[84.33661329771095,25.743219029405736],[84.32386962117931,25.67032034097527],[84.3042878743136,25.673804469466432],[84.28719269847846,25.676752578189724],[84.2980714467372,25.66630019271624],[84.28377366331144,25.660939995037527],[84.22254185168376,25.66737223225198],[84.20762242550038,25.669516311323463],[84.1989194268934,25.7022135171636],[84.15478279110086,25.72928251544109],[84.15043129179736,25.71936614973547],[84.1299170807952,25.717758090431857],[84.14172829319038,25.722046248574827],[84.13986336491746,25.731694604396505],[84.08919948016968,25.71346993228889],[84.07490169674394,25.695245260181274],[84.08142894569917,25.636551095599394],[84.0173997416621,25.614842295000617],[83.93036975559231,25.557488179838412],[83.93068057697113,25.588309316491],[83.94187014660868,25.58214508916048],[83.93938357557812,25.598761701964484],[83.93627536178991,25.615646324652424],[83.92073429284888,25.634675026411845],[83.93658618316873,25.642447313045977],[83.94715411004863,25.67514451888611],[83.96207353623203,25.68479287470779],[83.95150560935213,25.68532889447566],[83.95243807348858,25.702481527047535],[83.93627536178991,25.708377744494115],[83.94124850385104,25.72365430787844],[83.95927614382263,25.72553037706599],[83.9480865741851,25.74000291079851],[83.95305971624623,25.74938325673625],[83.9288156486982,25.765999869540256],[83.91234211562072,25.74938325673625],[83.91607197216656,25.761175691629415],[83.88281408463274,25.764391810236642],[83.85452933916007,25.798161055612518],[83.8520427681295,25.78610061083542],[83.83339348540025,25.793872897469548],[83.81505502404984,25.77779230443342],[83.82033898748979,25.78663663060329],[83.79982477648763,25.8123655794611],[83.78677027857715,25.808613441086003],[83.75102582001277,25.834074380059878],[83.74729596346693,25.854711141122916],[83.73828214348113,25.844526765533363],[83.73113325176826,25.857123230078333],[83.72180861040363,25.85658721031046],[83.73797132210231,25.88365620858795],[83.76594524619617,25.900272821391955],[83.79764902683588,25.90241690046344],[83.8069736682005,25.915817394660216],[83.80075724062408,25.92948589874093],[83.78117549375838,25.933238037116023],[83.78801356409244,25.976923648197516],[83.76563442481735,25.97424354935816],[83.77899974410664,25.98630399413526],[83.77589153031843,26.000240508099907],[83.76252621102914,25.994344290653324],[83.7274033952224,26.00667274531436],[83.70160522078028,26.008816824385843],[83.67705033185345,26.010960903457327],[83.67736115323227,26.04339009941353],[83.68761825873335,26.059470692449658],[83.68140183115693,26.07367521629824],[83.7034701490532,26.09055983898618],[83.73952542899642,26.082519542468113],[83.75693142621037,26.08814775003076],[83.7528907482857,26.09645605643276],[83.76408031792324,26.092167898289794],[83.76128292551385,26.1012802343436],[83.7948516344265,26.107444461674117],[83.80510873992758,26.1337094302998],[83.77962138686428,26.16185046811303],[83.8069736682005,26.179539120452777],[83.8085277750946,26.190527525694133],[83.84396141228017,26.191599565229875],[83.85888083846355,26.18409528847968]]]}},{"type":"Feature","properties":{"id":"ghazipur","name":"Ghazipur","st_nm":"Uttar Pradesh","dt_code":"195","year":"2011_c"},"geometry":{"type":"Polygon","coordinates":[[[83.06628632247079,25.65236367875159],[83.12068006376441,25.654507757823076],[83.14865398785827,25.636015075831523],[83.14865398785827,25.65718785666243],[83.18719583883204,25.676752578189724],[83.1940339091661,25.7022135171636],[83.23879218771627,25.708377744494115],[83.21392647741062,25.73142659451257],[83.21703469119882,25.762515741049093],[83.18906076710496,25.76626787942419],[83.19372308778728,25.778596334085226],[83.2182779767141,25.768947978263544],[83.21858879809292,25.75903161255793],[83.27484746765947,25.77645225501374],[83.28323964488763,25.756351513718574],[83.30313221313216,25.755547484066767],[83.30468632002626,25.785564591067548],[83.3202273889673,25.796016976541033],[83.32302478137669,25.814509658532586],[83.34820131306115,25.819065826559488],[83.36249909648691,25.811025530041423],[83.37151291647271,25.79735702596071],[83.384878235762,25.821745925398844],[83.40041930470304,25.823353984702457],[83.40010848332422,25.840238607390397],[83.42435255087223,25.84827890390846],[83.44548840463203,25.840238607390397],[83.4613402949519,25.850959002747818],[83.48154368457523,25.839702587622526],[83.49708475351628,25.86409148706066],[83.54961356653696,25.865699546364272],[83.59592595198124,25.884460238239758],[83.63073794640917,25.869451684739367],[83.6447249084561,25.898396752204405],[83.70098357802264,25.863823477176723],[83.72336271729773,25.86864765508756],[83.72118696764599,25.85658721031046],[83.73113325176826,25.857123230078333],[83.73548475107174,25.84131064692614],[83.7469851420881,25.856855220194397],[83.75102582001277,25.834074380059878],[83.78677027857715,25.808613441086003],[83.79982477648763,25.8123655794611],[83.82033898748979,25.78663663060329],[83.81505502404984,25.77779230443342],[83.83339348540025,25.793872897469548],[83.8520427681295,25.78610061083542],[83.85452933916007,25.798161055612518],[83.88281408463274,25.764391810236642],[83.91607197216656,25.761175691629415],[83.91234211562072,25.74938325673625],[83.92601825628883,25.767339918959934],[83.94901903832155,25.752331365459543],[83.94777575280628,25.741342960218187],[83.9571003941709,25.728210475905346],[83.94124850385104,25.72365430787844],[83.93627536178991,25.708377744494115],[83.95243807348858,25.702481527047535],[83.95150560935213,25.68532889447566],[83.95958696520145,25.68479287470779],[83.94715411004863,25.67514451888611],[83.93658618316873,25.642447313045977],[83.92073429284888,25.634675026411845],[83.93627536178991,25.615646324652424],[83.93938357557812,25.598761701964484],[83.9421809679875,25.583753148464094],[83.93068057697113,25.588309316491],[83.93036975559231,25.558024199606283],[83.9033282956349,25.52532699376615],[83.87628683567752,25.518090726899892],[83.87784094257162,25.499330035024403],[83.85670508881181,25.468508898371816],[83.83277184264261,25.45752049313046],[83.81629830956513,25.461272631505558],[83.81287927439809,25.448140147192717],[83.84209648400724,25.447068107656975],[83.8461371619319,25.43527567276381],[83.82251473714153,25.432059554156584],[83.80262216889702,25.429111445433296],[83.81443338129219,25.421339158799164],[83.80790613233697,25.40901070413813],[83.79112177788065,25.397486279128902],[83.77962138686428,25.398558318664644],[83.76967510274201,25.38810593319116],[83.75506649793745,25.392394091334126],[83.76625606757499,25.400970407620065],[83.74512021381518,25.400434387852194],[83.74076871451169,25.410350753557807],[83.70999739800844,25.385961854119675],[83.70129439940146,25.394806180289546],[83.69663207871915,25.38247772562851],[83.68295593805104,25.378993597137352],[83.69383468630977,25.369613251199606],[83.67673951047463,25.364253053520898],[83.66523911945826,25.368273201779928],[83.65622529947247,25.368273201779928],[83.6490764077596,25.33959614419883],[83.63384616019738,25.343348282573924],[83.62856219675743,25.328607738957473],[83.59623677336008,25.327803709305666],[83.57354681270616,25.307166948242628],[83.53997810379353,25.315743264528567],[83.53003181967127,25.322979531394825],[83.53624824724767,25.34602838141328],[83.52257210657956,25.379797626789156],[83.53096428380772,25.392394091334126],[83.4389611556768,25.45457238440717],[83.4044599826277,25.49343381757782],[83.38301330748908,25.49343381757782],[83.33576845790833,25.46368472046098],[83.24438697253504,25.523986944346472],[83.20149362225779,25.534707339703893],[83.17320887678511,25.526399033301892],[83.15580287957116,25.52050281585531],[83.16481669955695,25.506298292006726],[83.13186963340195,25.507102321658532],[83.10234160241399,25.526131023417957],[83.09861174586814,25.514070578640858],[83.11663938583975,25.500402074560146],[83.09457106794348,25.505762272238854],[83.08400314106356,25.49638192630111],[83.06411057281905,25.528811122257313],[83.07654342797187,25.53792345831112],[83.07188110728956,25.54810783390067],[83.07623260659305,25.56311638740106],[83.09021956863998,25.573568772874545],[83.08617889071532,25.59072140544642],[83.0665971438496,25.59527757347332],[83.07685424935069,25.615646324652424],[83.06473221557668,25.626902739777716],[83.06628632247079,25.65236367875159]]]}}],"attribution":"District boundaries derived from udit-001/india-maps-data (Uttar Pradesh GeoJSON). Original compilation credits DataMeet / Survey of India index maps. Not an official Survey of India product."}